{
  "type": "FeatureCollection",
  "features": [
    {
      "type": "Feature",
      "properties": {
        "norad_id": 39766,
        "name": "ALOS-2",
        "group": "resource",
        "lat": 33.874418527691105,
        "lon": 73.23124918741209,
        "alt_km": 628.4474690590923,
        "timestamp": "2025-12-09T16:56:36.237153+00:00",
        "meta_object_name": "ALOS-2",
        "meta_object_id": "2014-029A",
        "meta_epoch": "2025-12-09T11:55:10.278336",
        "meta_mean_motion": 14.79462474,
        "meta_eccentricity": 0.0001515,
        "meta_inclination": 97.9228,
        "meta_ra_of_asc_node": 78.3893,
        "meta_arg_of_pericenter": 100.318,
        "meta_mean_anomaly": 259.8202,
        "meta_ephemeris_type": 0,
        "meta_classification_type": "U",
        "meta_norad_cat_id": 39766,
        "meta_element_set_no": 999,
        "meta_rev_at_epoch": 62353,
        "meta_bstar": 0.00060743,
        "meta_mean_motion_dot": 4.487e-05,
        "meta_mean_motion_ddot": 0,
        "tle_line1": "1 39766U 14029A   25343.49664674  .00004487  00000+0  60743-3 0  9995",
        "tle_line2": "2 39766  97.9228  78.3893 0001515 100.3180 259.8202 14.79462474623538"
      },
      "geometry": {
        "type": "Point",
        "coordinates": [
          73.23124918741209,
          33.874418527691105
        ]
      }
    },
    {
      "type": "Feature",
      "properties": {
        "norad_id": 40010,
        "name": "KAZEOSAT 2",
        "group": "resource",
        "lat": -61.59049804307075,
        "lon": -6.017130673329875,
        "alt_km": 615.4821089845063,
        "timestamp": "2025-12-09T16:56:36.237163+00:00",
        "meta_object_name": "KAZEOSAT 2",
        "meta_object_id": "2014-033A",
        "meta_epoch": "2025-12-09T12:37:14.894112",
        "meta_mean_motion": 14.85159236,
        "meta_eccentricity": 0.0007539,
        "meta_inclination": 97.5501,
        "meta_ra_of_asc_node": 188.0058,
        "meta_arg_of_pericenter": 218.4025,
        "meta_mean_anomaly": 141.6655,
        "meta_ephemeris_type": 0,
        "meta_classification_type": "U",
        "meta_norad_cat_id": 40010,
        "meta_element_set_no": 999,
        "meta_rev_at_epoch": 62080,
        "meta_bstar": 0.00015423,
        "meta_mean_motion_dot": 1.271e-05,
        "meta_mean_motion_ddot": 0,
        "tle_line1": "1 40010U 14033A   25343.52586683  .00001271  00000+0  15423-3 0  9994",
        "tle_line2": "2 40010  97.5501 188.0058 0007539 218.4025 141.6655 14.85159236620808"
      },
      "geometry": {
        "type": "Point",
        "coordinates": [
          -6.017130673329875,
          -61.59049804307075
        ]
      }
    },
    {
      "type": "Feature",
      "properties": {
        "norad_id": 40011,
        "name": "HODOYOSHI-4",
        "group": "resource",
        "lat": -54.08323044688111,
        "lon": -176.72209451460344,
        "alt_km": 614.0641088770781,
        "timestamp": "2025-12-09T16:56:36.237174+00:00",
        "meta_object_name": "HODOYOSHI-4",
        "meta_object_id": "2014-033B",
        "meta_epoch": "2025-12-09T12:20:46.974048",
        "meta_mean_motion": 14.87462688,
        "meta_eccentricity": 0.0023026,
        "meta_inclination": 97.5414,
        "meta_ra_of_asc_node": 172.5573,
        "meta_arg_of_pericenter": 211.6573,
        "meta_mean_anomaly": 148.326,
        "meta_ephemeris_type": 0,
        "meta_classification_type": "U",
        "meta_norad_cat_id": 40011,
        "meta_element_set_no": 999,
        "meta_rev_at_epoch": 62060,
        "meta_bstar": 0.00026168,
        "meta_mean_motion_dot": 2.329e-05,
        "meta_mean_motion_ddot": 0,
        "tle_line1": "1 40011U 14033B   25343.51443257  .00002329  00000+0  26168-3 0  9996",
        "tle_line2": "2 40011  97.5414 172.5573 0023026 211.6573 148.3260 14.87462688620608"
      },
      "geometry": {
        "type": "Point",
        "coordinates": [
          -176.72209451460344,
          -54.08323044688111
        ]
      }
    },
    {
      "type": "Feature",
      "properties": {
        "norad_id": 40013,
        "name": "DEIMOS-2",
        "group": "resource",
        "lat": 41.821173500591726,
        "lon": -147.26132930799528,
        "alt_km": 584.927787249736,
        "timestamp": "2025-12-09T16:56:36.237184+00:00",
        "meta_object_name": "DEIMOS-2",
        "meta_object_id": "2014-033D",
        "meta_epoch": "2025-12-09T11:55:44.442624",
        "meta_mean_motion": 14.92950025,
        "meta_eccentricity": 0.000104,
        "meta_inclination": 97.6066,
        "meta_ra_of_asc_node": 219.4042,
        "meta_arg_of_pericenter": 92.7107,
        "meta_mean_anomaly": 267.4231,
        "meta_ephemeris_type": 0,
        "meta_classification_type": "U",
        "meta_norad_cat_id": 40013,
        "meta_element_set_no": 999,
        "meta_rev_at_epoch": 60941,
        "meta_bstar": 0.00016158,
        "meta_mean_motion_dot": 1.623e-05,
        "meta_mean_motion_ddot": 0,
        "tle_line1": "1 40013U 14033D   25343.49704216  .00001623  00000+0  16158-3 0  9994",
        "tle_line2": "2 40013  97.6066 219.4042 0001040  92.7107 267.4231 14.92950025609419"
      },
      "geometry": {
        "type": "Point",
        "coordinates": [
          -147.26132930799528,
          41.821173500591726
        ]
      }
    },
    {
      "type": "Feature",
      "properties": {
        "norad_id": 40015,
        "name": "HODOYOSHI-3",
        "group": "resource",
        "lat": -77.12192394248373,
        "lon": -66.16921219394594,
        "alt_km": 599.3390621412309,
        "timestamp": "2025-12-09T16:56:36.237195+00:00",
        "meta_object_name": "HODOYOSHI-3",
        "meta_object_id": "2014-033F",
        "meta_epoch": "2025-12-09T10:55:26.573088",
        "meta_mean_motion": 14.84790415,
        "meta_eccentricity": 0.0031813,
        "meta_inclination": 97.62,
        "meta_ra_of_asc_node": 149.4332,
        "meta_arg_of_pericenter": 259.2155,
        "meta_mean_anomaly": 100.5478,
        "meta_ephemeris_type": 0,
        "meta_classification_type": "U",
        "meta_norad_cat_id": 40015,
        "meta_element_set_no": 999,
        "meta_rev_at_epoch": 61946,
        "meta_bstar": 0.00035673,
        "meta_mean_motion_dot": 3.002e-05,
        "meta_mean_motion_ddot": 0,
        "tle_line1": "1 40015U 14033F   25343.45516867  .00003002  00000+0  35673-3 0  9991",
        "tle_line2": "2 40015  97.6200 149.4332 0031813 259.2155 100.5478 14.84790415619461"
      },
      "geometry": {
        "type": "Point",
        "coordinates": [
          -66.16921219394594,
          -77.12192394248373
        ]
      }
    },
    {
      "type": "Feature",
      "properties": {
        "norad_id": 40053,
        "name": "SPOT 7",
        "group": "resource",
        "lat": -63.54388904983186,
        "lon": -150.75845656154146,
        "alt_km": 699.016514238926,
        "timestamp": "2025-12-09T16:56:36.237206+00:00",
        "meta_object_name": "SPOT 7",
        "meta_object_id": "2014-034A",
        "meta_epoch": "2025-12-09T12:32:19.470048",
        "meta_mean_motion": 14.60728212,
        "meta_eccentricity": 0.0001542,
        "meta_inclination": 98.0906,
        "meta_ra_of_asc_node": 45.6721,
        "meta_arg_of_pericenter": 89.1368,
        "meta_mean_anomaly": 271.0009,
        "meta_ephemeris_type": 0,
        "meta_classification_type": "U",
        "meta_norad_cat_id": 40053,
        "meta_element_set_no": 999,
        "meta_rev_at_epoch": 60944,
        "meta_bstar": 0.00023208,
        "meta_mean_motion_dot": 1.086e-05,
        "meta_mean_motion_ddot": 0,
        "tle_line1": "1 40053U 14034A   25343.52244757  .00001086  00000+0  23208-3 0  9999",
        "tle_line2": "2 40053  98.0906  45.6721 0001542  89.1368 271.0009 14.60728212609443"
      },
      "geometry": {
        "type": "Point",
        "coordinates": [
          -150.75845656154146,
          -63.54388904983186
        ]
      }
    },
    {
      "type": "Feature",
      "properties": {
        "norad_id": 40072,
        "name": "SKYSAT-B",
        "group": "resource",
        "lat": -68.12302142777062,
        "lon": 85.76628810200282,
        "alt_km": 613.6270952139466,
        "timestamp": "2025-12-09T16:56:36.237217+00:00",
        "meta_object_name": "SKYSAT-B",
        "meta_object_id": "2014-037D",
        "meta_epoch": "2025-12-09T09:21:57.796128",
        "meta_mean_motion": 14.87308261,
        "meta_eccentricity": 0.0005882,
        "meta_inclination": 98.3607,
        "meta_ra_of_asc_node": 286.9193,
        "meta_arg_of_pericenter": 160.2114,
        "meta_mean_anomaly": 199.933,
        "meta_ephemeris_type": 0,
        "meta_classification_type": "U",
        "meta_norad_cat_id": 40072,
        "meta_element_set_no": 999,
        "meta_rev_at_epoch": 61774,
        "meta_bstar": 0.00037796,
        "meta_mean_motion_dot": 3.351e-05,
        "meta_mean_motion_ddot": 0,
        "tle_line1": "1 40072U 14037D   25343.39025227  .00003351  00000+0  37796-3 0  9991",
        "tle_line2": "2 40072  98.3607 286.9193 0005882 160.2114 199.9330 14.87308261617743"
      },
      "geometry": {
        "type": "Point",
        "coordinates": [
          85.76628810200282,
          -68.12302142777062
        ]
      }
    }
  ]
}